[Satellite]
VERSION=1.1
NAME=DIAMOND BLUE
NICKNAME=DIAMOND BLUE
TLE1=1 42786U 17036X   22342.08332487  .00016492  00000+0  55274-3 0  9999
TLE2=2 42786  97.1792  17.1145 0011388  75.6970 284.5535 15.30924224303547
STATUS=0
